{
  "type": "FeatureCollection",
  "features": [
    {
      "type": "Feature",
      "properties": {
        "norad_id": 67033,
        "name": "STARLINK-36137",
        "group": "last-30-days",
        "lat": -25.157975386225605,
        "lon": -28.568840067423743,
        "alt_km": 326.8359958900128,
        "timestamp": "2025-12-22T16:55:16.170027+00:00",
        "meta_object_name": "STARLINK-36137",
        "meta_object_id": "2025-294D",
        "meta_epoch": "2025-12-22T06:00:02.000160",
        "meta_mean_motion": 15.83754863,
        "meta_eccentricity": 0.00013353,
        "meta_inclination": 42.9998,
        "meta_ra_of_asc_node": 123.9571,
        "meta_arg_of_pericenter": 277.7039,
        "meta_mean_anomaly": 224.8503,
        "meta_ephemeris_type": 0,
        "meta_classification_type": "U",
        "meta_norad_cat_id": 67033,
        "meta_element_set_no": 999,
        "meta_rev_at_epoch": 164,
        "meta_bstar": -0.0094259055,
        "meta_mean_motion_dot": -0.01885416,
        "meta_mean_motion_ddot": 0,
        "tle_line1": "1 67033U 25294D   25356.25002315 -.01885416  00000+0 -94259-2 0  9995",
        "tle_line2": "2 67033  42.9998 123.9571 0001335 277.7039 224.8503 15.83754863  1642"
      },
      "geometry": {
        "type": "Point",
        "coordinates": [
          -28.568840067423743,
          -25.157975386225605
        ]
      }
    },
    {
      "type": "Feature",
      "properties": {
        "norad_id": 67034,
        "name": "STARLINK-36140",
        "group": "last-30-days",
        "lat": -27.69399461195803,
        "lon": -24.56400098601808,
        "alt_km": 326.64400343641046,
        "timestamp": "2025-12-22T16:55:16.170037+00:00",
        "meta_object_name": "STARLINK-36140",
        "meta_object_id": "2025-294E",
        "meta_epoch": "2025-12-22T06:00:02.000160",
        "meta_mean_motion": 15.83744099,
        "meta_eccentricity": 0.00016372,
        "meta_inclination": 42.9998,
        "meta_ra_of_asc_node": 123.946,
        "meta_arg_of_pericenter": 267.0063,
        "meta_mean_anomaly": 239.9795,
        "meta_ephemeris_type": 0,
        "meta_classification_type": "U",
        "meta_norad_cat_id": 67034,
        "meta_element_set_no": 999,
        "meta_rev_at_epoch": 164,
        "meta_bstar": -0.0094965818,
        "meta_mean_motion_dot": -0.01897177,
        "meta_mean_motion_ddot": 0,
        "tle_line1": "1 67034U 25294E   25356.25002315 -.01897177  00000+0 -94966-2 0  9998",
        "tle_line2": "2 67034  42.9998 123.9460 0001637 267.0063 239.9795 15.83744099  1644"
      },
      "geometry": {
        "type": "Point",
        "coordinates": [
          -24.56400098601808,
          -27.69399461195803
        ]
      }
    },
    {
      "type": "Feature",
      "properties": {
        "norad_id": 67035,
        "name": "STARLINK-36085",
        "group": "last-30-days",
        "lat": -30.215529799109017,
        "lon": -20.17799151743837,
        "alt_km": 327.04537068548507,
        "timestamp": "2025-12-22T16:55:16.170047+00:00",
        "meta_object_name": "STARLINK-36085",
        "meta_object_id": "2025-294F",
        "meta_epoch": "2025-12-22T06:00:02.000160",
        "meta_mean_motion": 15.8371565,
        "meta_eccentricity": 0.00013325,
        "meta_inclination": 43,
        "meta_ra_of_asc_node": 123.934,
        "meta_arg_of_pericenter": 271.1495,
        "meta_mean_anomaly": 240.4883,
        "meta_ephemeris_type": 0,
        "meta_classification_type": "U",
        "meta_norad_cat_id": 67035,
        "meta_element_set_no": 999,
        "meta_rev_at_epoch": 164,
        "meta_bstar": -0.0095276896,
        "meta_mean_motion_dot": -0.01900008,
        "meta_mean_motion_ddot": 0,
        "tle_line1": "1 67035U 25294F   25356.25002315 -.01900008  00000+0 -95277-2 0  9993",
        "tle_line2": "2 67035  43.0000 123.9340 0001332 271.1495 240.4883 15.83715650  1641"
      },
      "geometry": {
        "type": "Point",
        "coordinates": [
          -20.17799151743837,
          -30.215529799109017
        ]
      }
    },
    {
      "type": "Feature",
      "properties": {
        "norad_id": 67036,
        "name": "STARLINK-36125",
        "group": "last-30-days",
        "lat": -28.970112466323005,
        "lon": -22.401941181335314,
        "alt_km": 326.9880311864481,
        "timestamp": "2025-12-22T16:55:16.170057+00:00",
        "meta_object_name": "STARLINK-36125",
        "meta_object_id": "2025-294G",
        "meta_epoch": "2025-12-22T06:00:02.000160",
        "meta_mean_motion": 15.83721542,
        "meta_eccentricity": 0.0001399,
        "meta_inclination": 42.9998,
        "meta_ra_of_asc_node": 123.9401,
        "meta_arg_of_pericenter": 274.7408,
        "meta_mean_anomaly": 234.5695,
        "meta_ephemeris_type": 0,
        "meta_classification_type": "U",
        "meta_norad_cat_id": 67036,
        "meta_element_set_no": 999,
        "meta_rev_at_epoch": 183,
        "meta_bstar": -0.0094441811,
        "meta_mean_motion_dot": -0.01886021,
        "meta_mean_motion_ddot": 0,
        "tle_line1": "1 67036U 25294G   25356.25002315 -.01886021  00000+0 -94442-2 0  9995",
        "tle_line2": "2 67036  42.9998 123.9401 0001399 274.7408 234.5695 15.83721542  1833"
      },
      "geometry": {
        "type": "Point",
        "coordinates": [
          -22.401941181335314,
          -28.970112466323005
        ]
      }
    },
    {
      "type": "Feature",
      "properties": {
        "norad_id": 67037,
        "name": "STARLINK-35732",
        "group": "last-30-days",
        "lat": -31.489568776456622,
        "lon": -17.765210218322864,
        "alt_km": 327.0791159408127,
        "timestamp": "2025-12-22T16:55:16.170068+00:00",
        "meta_object_name": "STARLINK-35732",
        "meta_object_id": "2025-294H",
        "meta_epoch": "2025-12-22T06:00:02.000160",
        "meta_mean_motion": 15.83696058,
        "meta_eccentricity": 0.00013611,
        "meta_inclination": 42.9997,
        "meta_ra_of_asc_node": 123.928,
        "meta_arg_of_pericenter": 268.8846,
        "meta_mean_anomaly": 245.2196,
        "meta_ephemeris_type": 0,
        "meta_classification_type": "U",
        "meta_norad_cat_id": 67037,
        "meta_element_set_no": 999,
        "meta_rev_at_epoch": 175,
        "meta_bstar": -0.0095150183,
        "meta_mean_motion_dot": -0.01896275,
        "meta_mean_motion_ddot": 0,
        "tle_line1": "1 67037U 25294H   25356.25002315 -.01896275  00000+0 -95150-2 0  9995",
        "tle_line2": "2 67037  42.9997 123.9280 0001361 268.8846 245.2196 15.83696058  1756"
      },
      "geometry": {
        "type": "Point",
        "coordinates": [
          -17.765210218322864,
          -31.489568776456622
        ]
      }
    },
    {
      "type": "Feature",
      "properties": {
        "norad_id": 67038,
        "name": "STARLINK-35775",
        "group": "last-30-days",
        "lat": -32.56629397971409,
        "lon": -15.601345704877582,
        "alt_km": 327.1911743474466,
        "timestamp": "2025-12-22T16:55:16.170079+00:00",
        "meta_object_name": "STARLINK-35775",
        "meta_object_id": "2025-294J",
        "meta_epoch": "2025-12-22T06:00:02.000160",
        "meta_mean_motion": 15.8368754,
        "meta_eccentricity": 0.0001382,
        "meta_inclination": 42.9999,
        "meta_ra_of_asc_node": 123.9223,
        "meta_arg_of_pericenter": 272.8077,
        "meta_mean_anomaly": 243.444,
        "meta_ephemeris_type": 0,
        "meta_classification_type": "U",
        "meta_norad_cat_id": 67038,
        "meta_element_set_no": 999,
        "meta_rev_at_epoch": 175,
        "meta_bstar": -0.009511056,
        "meta_mean_motion_dot": -0.01894929,
        "meta_mean_motion_ddot": 0,
        "tle_line1": "1 67038U 25294J   25356.25002315 -.01894929  00000+0 -95111-2 0  9997",
        "tle_line2": "2 67038  42.9999 123.9223 0001382 272.8077 243.4440 15.83687540  1758"
      },
      "geometry": {
        "type": "Point",
        "coordinates": [
          -15.601345704877582,
          -32.56629397971409
        ]
      }
    },
    {
      "type": "Feature",
      "properties": {
        "norad_id": 67039,
        "name": "STARLINK-35705",
        "group": "last-30-days",
        "lat": -34.661179386137206,
        "lon": -10.977800431515726,
        "alt_km": 327.32039954074116,
        "timestamp": "2025-12-22T16:55:16.170090+00:00",
        "meta_object_name": "STARLINK-35705",
        "meta_object_id": "2025-294K",
        "meta_epoch": "2025-12-22T06:00:02.000160",
        "meta_mean_motion": 15.83673612,
        "meta_eccentricity": 0.00013428,
        "meta_inclination": 42.9999,
        "meta_ra_of_asc_node": 123.9114,
        "meta_arg_of_pericenter": 272.575,
        "meta_mean_anomaly": 248.0999,
        "meta_ephemeris_type": 0,
        "meta_classification_type": "U",
        "meta_norad_cat_id": 67039,
        "meta_element_set_no": 999,
        "meta_rev_at_epoch": 164,
        "meta_bstar": -0.009553248,
        "meta_mean_motion_dot": -0.01901097,
        "meta_mean_motion_ddot": 0,
        "tle_line1": "1 67039U 25294K   25356.25002315 -.01901097  00000+0 -95532-2 0  9990",
        "tle_line2": "2 67039  42.9999 123.9114 0001342 272.5750 248.0999 15.83673612  1642"
      },
      "geometry": {
        "type": "Point",
        "coordinates": [
          -10.977800431515726,
          -34.661179386137206
        ]
      }
    }
  ]
}